CALSPHERE 1             
1 00900U 64063C   26087.84842189  .00000701  00000+0  70504-3 0  9991
2 00900  90.2180  69.8883 0025524 170.1489 265.1649 13.76522871 60372
CALSPHERE 2             
1 00902U 64063E   26087.73409742  .00000075  00000+0  98695-4 0  9991
2 00902  90.2300  73.8763 0020601  99.8789  73.3152 13.52893704845381
LCS 1                   
1 01361U 65034C   26087.79339200  .00000009  00000+0  28819-4 0  9995
2 01361  32.1472   7.9056 0013311 197.7879 162.2153  9.89309860201922
TEMPSAT 1               
1 01512U 65065E   26087.86675875  .00000033  00000+0  46506-4 0  9996
2 01512  89.9976 212.5810 0071473 113.8002   0.4144 13.33590301949345
CALSPHERE 4A            
1 01520U 65065H   26087.82823403  .00000111  00000+0  19658-3 0  9997
2 01520  89.8995 123.2878 0068471 331.9323 203.7296 13.36262737951979
OPS 5712 (P/L 160)      
1 02826U 67053A   26087.60140451  .00011513  00000+0  16573-2 0  9997
2 02826  69.9161 235.6352 0003100 216.7570 143.3365 14.76529806 54338
OPS 5712 (P/L 153)      
1 02874U 67053H   26087.56257892  .00000065  00000+0  85155-4 0  9997
2 02874  69.9725 288.1184 0009725 291.9465  68.0607 13.96815646995528
RIGIDSPHERE 2 (LCS 4)   
1 05398U 71067E   26087.53226653  .00000719  00000+0  22787-3 0  9996
2 05398  87.6280   1.1916 0061264 138.6674 221.9186 14.37770116862293
COSMOS 2493 (SKRL-756 1)
1 39490U 13078A   26087.53893622  .00003014  00000+0  22939-3 0  9990
2 39490  82.4157 340.0711 0013776 150.5827 209.6176 15.01713777665852
COSMOS 2494 (SKRL-756 2)
1 39491U 13078B   26087.61367883  .00004741  00000+0  33694-3 0  9993
2 39491  82.4142 329.7225 0017448 115.2883 245.0153 15.04356861666693
