[{"OBJECT_NAME":"CALSPHERE 1","OBJECT_ID":"1964-063C","EPOCH":"2026-03-28T20:21:43.651296","MEAN_MOTION":13.76522871,"ECCENTRICITY":0.0025524,"INCLINATION":90.218,"RA_OF_ASC_NODE":69.8883,"ARG_OF_PERICENTER":170.1489,"MEAN_ANOMALY":265.1649,"EPHEMERIS_TYPE":0,"CLASSIFICATION_TYPE":"U","NORAD_CAT_ID":900,"ELEMENT_SET_NO":999,"REV_AT_EPOCH":6037,"BSTAR":0.00070504,"MEAN_MOTION_DOT":7.01e-6,"MEAN_MOTION_DDOT":0},{"OBJECT_NAME":"CALSPHERE 2","OBJECT_ID":"1964-063E","EPOCH":"2026-03-28T17:37:06.017088","MEAN_MOTION":13.52893704,"ECCENTRICITY":0.0020601,"INCLINATION":90.23,"RA_OF_ASC_NODE":73.8763,"ARG_OF_PERICENTER":99.8789,"MEAN_ANOMALY":73.3152,"EPHEMERIS_TYPE":0,"CLASSIFICATION_TYPE":"U","NORAD_CAT_ID":902,"ELEMENT_SET_NO":999,"REV_AT_EPOCH":84538,"BSTAR":9.8695e-5,"MEAN_MOTION_DOT":7.5e-7,"MEAN_MOTION_DDOT":0},{"OBJECT_NAME":"LCS 1","OBJECT_ID":"1965-034C","EPOCH":"2026-03-28T19:02:29.068800","MEAN_MOTION":9.8930986,"ECCENTRICITY":0.0013311,"INCLINATION":32.1472,"RA_OF_ASC_NODE":7.9056,"ARG_OF_PERICENTER":197.7879,"MEAN_ANOMALY":162.2153,"EPHEMERIS_TYPE":0,"CLASSIFICATION_TYPE":"U","NORAD_CAT_ID":1361,"ELEMENT_SET_NO":999,"REV_AT_EPOCH":20192,"BSTAR":2.8819e-5,"MEAN_MOTION_DOT":9.0e-8,"MEAN_MOTION_DDOT":0},{"OBJECT_NAME":"TEMPSAT 1","OBJECT_ID":"1965-065E","EPOCH":"2026-03-28T20:48:07.956000","MEAN_MOTION":13.33590301,"ECCENTRICITY":0.0071473,"INCLINATION":89.9976,"RA_OF_ASC_NODE":212.581,"ARG_OF_PERICENTER":113.8002,"MEAN_ANOMALY":0.4144,"EPHEMERIS_TYPE":0,"CLASSIFICATION_TYPE":"U","NORAD_CAT_ID":1512,"ELEMENT_SET_NO":999,"REV_AT_EPOCH":94934,"BSTAR":4.6506e-5,"MEAN_MOTION_DOT":3.3e-7,"MEAN_MOTION_DDOT":0},{"OBJECT_NAME":"CALSPHERE 4A","OBJECT_ID":"1965-065H","EPOCH":"2026-03-28T19:52:39.420192","MEAN_MOTION":13.36262737,"ECCENTRICITY":0.0068471,"INCLINATION":89.8995,"RA_OF_ASC_NODE":123.2878,"ARG_OF_PERICENTER":331.9323,"MEAN_ANOMALY":203.7296,"EPHEMERIS_TYPE":0,"CLASSIFICATION_TYPE":"U","NORAD_CAT_ID":1520,"ELEMENT_SET_NO":999,"REV_AT_EPOCH":95197,"BSTAR":0.00019658,"MEAN_MOTION_DOT":1.11e-6,"MEAN_MOTION_DDOT":0},{"OBJECT_NAME":"OPS 5712 (P/L 160)","OBJECT_ID":"1967-053A","EPOCH":"2026-03-28T14:26:01.349664","MEAN_MOTION":14.76529806,"ECCENTRICITY":0.00031007,"INCLINATION":69.9161,"RA_OF_ASC_NODE":235.6352,"ARG_OF_PERICENTER":216.757,"MEAN_ANOMALY":143.3365,"EPHEMERIS_TYPE":0,"CLASSIFICATION_TYPE":"U","NORAD_CAT_ID":2826,"ELEMENT_SET_NO":999,"REV_AT_EPOCH":5433,"BSTAR":0.0016572521,"MEAN_MOTION_DOT":0.00011513,"MEAN_MOTION_DDOT":0},{"OBJECT_NAME":"OPS 5712 (P/L 153)","OBJECT_ID":"1967-053H","EPOCH":"2026-03-28T13:30:06.818688","MEAN_MOTION":13.96815646,"ECCENTRICITY":0.00097251,"INCLINATION":69.9725,"RA_OF_ASC_NODE":288.1184,"ARG_OF_PERICENTER":291.9465,"MEAN_ANOMALY":68.0607,"EPHEMERIS_TYPE":0,"CLASSIFICATION_TYPE":"U","NORAD_CAT_ID":2874,"ELEMENT_SET_NO":999,"REV_AT_EPOCH":99552,"BSTAR":8.5155275e-5,"MEAN_MOTION_DOT":6.5e-7,"MEAN_MOTION_DDOT":0},{"OBJECT_NAME":"RIGIDSPHERE 2 (LCS 4)","OBJECT_ID":"1971-067E","EPOCH":"2026-03-28T12:46:27.828192","MEAN_MOTION":14.37770116,"ECCENTRICITY":0.00612646,"INCLINATION":87.628,"RA_OF_ASC_NODE":1.1916,"ARG_OF_PERICENTER":138.6674,"MEAN_ANOMALY":221.9186,"EPHEMERIS_TYPE":0,"CLASSIFICATION_TYPE":"U","NORAD_CAT_ID":5398,"ELEMENT_SET_NO":999,"REV_AT_EPOCH":86229,"BSTAR":0.0002278723,"MEAN_MOTION_DOT":7.19e-6,"MEAN_MOTION_DDOT":0},{"OBJECT_NAME":"COSMOS 2493 (SKRL-756 1)","OBJECT_ID":"2013-078A","EPOCH":"2026-03-28T12:56:04.089408","MEAN_MOTION":15.01713777,"ECCENTRICITY":0.00137767,"INCLINATION":82.4157,"RA_OF_ASC_NODE":340.0711,"ARG_OF_PERICENTER":150.5827,"MEAN_ANOMALY":209.6176,"EPHEMERIS_TYPE":0,"CLASSIFICATION_TYPE":"U","NORAD_CAT_ID":39490,"ELEMENT_SET_NO":999,"REV_AT_EPOCH":66585,"BSTAR":0.00022938787,"MEAN_MOTION_DOT":3.014e-5,"MEAN_MOTION_DDOT":0},{"OBJECT_NAME":"COSMOS 2494 (SKRL-756 2)","OBJECT_ID":"2013-078B","EPOCH":"2026-03-28T14:43:41.850912","MEAN_MOTION":15.04356861,"ECCENTRICITY":0.00174486,"INCLINATION":82.4142,"RA_OF_ASC_NODE":329.7225,"ARG_OF_PERICENTER":115.2883,"MEAN_ANOMALY":245.0153,"EPHEMERIS_TYPE":0,"CLASSIFICATION_TYPE":"U","NORAD_CAT_ID":39491,"ELEMENT_SET_NO":999,"REV_AT_EPOCH":66669,"BSTAR":0.00033694368,"MEAN_MOTION_DOT":4.741e-5,"MEAN_MOTION_DDOT":0}]
